{"fetched_at":"2026-03-29T02:12:04Z","count":15717,"tles":[{"name":"GPS BIIRM-1 (PRN 17)","line1":"1 28874U 05038A   26087.36787354  .00000000  00000+0  00000+0 0  9999","line2":"2 28874  54.9447 276.4371 0128190 295.6323 268.7932  2.00571249150211","category":"GPS"}]}